GSAT-15 (GAGAN/PRN 139) 
1 41028U 15065A   24278.05768222 -.00000251  00000+0  00000+0 0  9994
2 41028   0.0140 249.1785 0002312 290.9651 307.3773  1.00272657 32632
E 117 W B (WAAS/PRN 131)
1 41589U 16038B   24277.37247969 -.00000007  00000+0  00000+0 0  9990
2 41589   0.0240  44.7366 0000159 141.8571 203.0783  1.00272491 30470
SES-15 (WAAS/PRN 133)   
1 42709U 17026A   24277.86458333  .00000066  00000+0  00000+0 0  9990
2 42709   0.0093  83.4282 0001026  92.0791  19.6365  1.00272273  1218
QZS-2 (QZSS/PRN 194)    
1 42738U 17028A   24277.25882951 -.00000196  00000+0  00000+0 0  9999
2 42738  40.4066 252.2039 0746781 270.5934  82.5971  1.00255858 26893
QZS-3 (QZSS/PRN 199)    
1 42917U 17048A   24277.84993962 -.00000341  00000+0  00000+0 0  9992
2 42917   0.0580 206.8634 0001736 325.9843 273.2318  1.00274818 26025
QZS-4 (QZSS/PRN 195)    
1 42965U 17062A   24277.53938363 -.00000320  00000+0  00000+0 0  9998
2 42965  40.4633 351.4193 0751654 269.9329  85.6407  1.00272867 25585
BEIDOU-3 G1 (PRN 130)   
1 43683U 18085A   24277.85254602 -.00000269  00000+0  00000+0 0  9996
2 43683   2.4545 105.6049 0002731  28.4863 325.8082  1.00278440 21822
BEIDOU-3 G2 (PRN 144)   
1 45344U 20017A   24277.87731003 -.00000134  00000+0  00000+0 0  9998
2 45344   2.4600  33.4552 0003595 189.6898 185.8024  1.00272109 17038
BEIDOU-3 G3 (PRN 143)   
1 45807U 20040A   24277.86753363 -.00000347  00000+0  00000+0 0  9996
2 45807   0.9807  52.8027 0002794 307.6977  75.4333  1.00275334 15843
GALAXY 30 (WAAS/PRN 135)
1 46114U 20056C   24276.70674382  .00000039  00000+0  00000+0 0  9997
2 46114   0.0208 175.6158 0002272  18.5049 307.2096  1.00270306 15058
QZS-1R (QZSS/PRN 196)   
1 49336U 21096A   24277.51045588 -.00000212  00000+0  00000+0 0  9995
2 49336  36.1680  88.8863 0745066 270.0056 332.8659  1.00285672 10761
HST                     
1 20580U 90037B   24277.88046536  .00019870  00000+0  88934-3 0  9995
2 20580  28.4698 335.8650 0003247 142.9508 217.1310 15.19890521693575
POLAR                   
1 23802U 96013A   24275.18013185  .00000198  00000+0  00000+0 0  9997
2 23802  79.2144 233.6268 5934792 230.1547  60.5469  1.29847094136751
SWAS                    
1 25560U 98071A   24277.70967402  .00016557  00000+0  12647-2 0  9995
2 25560  69.9010  22.3053 0004412 150.0453 210.0960 15.02014536403674
CXO                     
1 25867U 99040B   24278.92956533  .00001036  00000+0  00000+0 0  9993
2 25867  43.5704 144.8881 8773836 302.2750   0.5451  0.37812895 14977
XMM-NEWTON              
1 25989U 99066A   24278.11300460  .00000076  00000+0  00000+0 0  9992
2 25989  67.3560 291.3447 5041647  75.4918   0.0099  0.50139336 19887
TERRA                   
1 25994U 99068A   24278.20054889  .00002951  00000+0  62352-3 0  9997
2 25994  98.0364 338.4405 0003003  48.9823  18.0904 14.60048402319079
CLUSTER II-FM7 (SAMBA)  
1 26410U 00041A   24280.15446542  .00000217  00000+0  00000+0 0  9993
2 26410 140.5638   1.3008 7774340 216.3979   0.8595  0.44227021 29294
CLUSTER II-FM5 (RUMBA)  
1 26463U 00045A   24279.75633344  .00002890  00000+0  00000+0 0  9996
2 26463 152.5327  31.7427 8775681 247.7951   0.9006  0.42905607 17465
CLUSTER II-FM8 (TANGO)  
1 26464U 00045B   24280.15453003  .00000218  00000+0  00000+0 0  9997
2 26464 140.5726   1.3027 7774402 216.4042   0.8539  0.44220512 65211
ODIN                    
1 26702U 01007A   24277.87951989  .00039001  00000+0  14567-2 0  9990
2 26702  97.4743 292.9084 0005205 245.9254 114.1440 15.27253008293462
TIMED                   
1 26998U 01055B   24277.82360781  .00008707  00000+0  85688-3 0  9991
2 26998  74.0724  43.6950 0000943 351.2741   8.8425 14.92210079238023
INTEGRAL                
1 27540U 02048A   24275.41186953  .00000342  00000+0  00000+0 0  9996
2 27540  90.0955  16.0450 8624292 278.9170  10.6102  0.37580007 24298
CORIOLIS                
1 27640U 03001A   24277.91599125  .00001007  00000+0  49728-3 0  9996
2 27640  98.7162 283.4155 0013708 197.7040 162.3660 14.19583427126062
SORCE                   
1 27651U 03004A   24277.45233021  .00012118  00000+0  10482-2 0  9999
2 27651  39.9927 193.1965 0022889 280.5572  79.2641 14.96709438178482
MOST                    
1 27843U 03031D   24277.91412502  .00000816  00000+0  39593-3 0  9993
2 27843  98.7092 283.3434 0008867 243.3312 116.6957 14.21048385102469
SCISAT 1                
1 27858U 03036A   24278.21131373  .00003811  00000+0  51158-3 0  9991
2 27858  73.9320 323.8296 0007023 180.0864 180.0312 14.79698179139546
SWIFT                   
1 28485U 04047A   24277.91863952  .00038957  00000+0  15416-2 0  9997
2 28485  20.5553 120.4269 0006684 253.5847 106.3855 15.23722053 90750
CALIPSO                 
1 29108U 06016B   24277.87095339  .00009059  00000+0  16390-2 0  9992
2 29108  98.4296 262.5490 0002078  84.0181 276.1259 14.66590191981874
HINODE (SOLAR-B)        
1 29479U 06041A   24277.88674250  .00004818  00000+0  86660-3 0  9993
2 29479  98.0871 291.7221 0019422  97.0035 263.3379 14.66952393963719
SHIJIAN-6 02A (SJ-6 02A)
1 29505U 06046A   24278.15853522  .00018322  00000+0  12665-2 0  9998
2 29505  97.7142 305.1310 0005498 106.0308 254.1525 15.05765479978546
SHIJIAN-6 02B (SJ-6 02B)
1 29506U 06046B   24278.21654615  .00006691  00000+0  56968-3 0  9999
2 29506  97.7323 302.1100 0000639  45.3975 314.7299 14.98115163977651
FGRST (GLAST)           
1 33053U 08029A   24277.80952197  .00012169  00000+0  56288-3 0  9996
2 33053  25.5815 182.6563 0009667 221.2299 138.7508 15.18162785901093
SDO                     
1 36395U 10005A   24278.01893358 -.00000040  00000+0  00000+0 0  9995
2 36395  33.3465  95.8891 0001416 161.4584  21.0088  1.00274884 53802
CRYOSAT 2               
1 36508U 10013A   24277.90566416  .00001074  00000+0  26598-3 0  9990
2 36508  92.0199 127.3761 0000379  28.0018 332.1210 14.51914060767934
X-SAT                   
1 37389U 11015C   24278.19161231  .00001030  00000+0  45851-3 0  9994
2 37389  98.2992 276.2089 0014381  12.3038 347.8490 14.24812451699752
GCOM-W1 (SHIZUKU)       
1 38337U 12025A   24277.84849973  .00005401  00000+0  12088-2 0  9998
2 38337  98.2100 216.2658 0002577  90.5028 333.8791 14.57075182658554
NUSTAR                  
1 38358U 12031A   24277.91667824  .00008825  00000+0  65276-3 0  9990
2 38358   6.0284 342.3473 0010724 281.7807 268.6965 14.98503145  1308
NEOSSAT                 
1 39089U 13009D   24277.59033612  .00001306  00000+0  47031-3 0  9990
2 39089  98.4052 102.1288 0010210 303.1082  56.9123 14.35317410607550
BRITE-AUSTRIA           
1 39091U 13009F   24278.09910746  .00001681  00000+0  59337-3 0  9999
2 39091  98.3861 102.6892 0009308 298.0624  61.9621 14.35976372607902
IRIS                    
1 39197U 13033A   24277.77608167  .00007202  00000+0  89258-3 0  9998
2 39197  97.9610 107.8952 0025523 185.3100 174.7846 14.82756156608174
HISAKI (SPRINT-A)       
1 39253U 13049A   24277.80650478  .00000421  00000+0  48299-3 0  9990
2 39253  29.7185 138.9011 0136630  19.4984 341.0750 13.55425080547057
CASSIOPE                
1 39265U 13055A   24277.89860746  .00035935  00000+0  71091-3 0  9994
2 39265  80.9478  74.1384 0469372 287.6245  67.4233 14.77111876574403
STSAT-3                 
1 39422U 13066G   24278.21749445  .00013402  00000+0  11826-2 0  9994
2 39422  97.5330 253.4207 0020280   1.6028 358.5255 14.96356970591111
SWARM B                 
1 39451U 13067A   24277.85685578  .00012854  00000+0  56357-3 0  9991
2 39451  87.7564 170.0645 0003149  84.7959 275.3646 15.21880138588510
SWARM A                 
1 39452U 13067B   24277.84540635  .00020667  00000+0  60577-3 0  9995
2 39452  87.3346 283.9118 0003681  88.5081 271.6593 15.35078011610412
SWARM C                 
1 39453U 13067C   24277.84531431  .00020885  00000+0  61211-3 0  9998
2 39453  87.3344 282.5007 0003705  88.0389 272.1287 15.35080383610372
BRITE-CA1 (TORONTO)     
1 40020U 14033L   24278.08678423  .00008440  00000+0  13360-2 0  9998
2 40020  97.8939  51.5156 0083210 104.2554 256.7912 14.70160540550977
OCO 2                   
1 40059U 14035A   24277.83340948  .00004264  00000+0  95508-3 0  9997
2 40059  98.2098 216.9958 0001761  67.5318 292.6066 14.57146025545562
BRITE-PL2 (HEWELIUSZ)   
1 40119U 14049B   24277.85395511  .00009912  00000+0  10302-2 0  9990
2 40119  97.8866  17.1201 0015445  11.0103 349.1449 14.90011970548753
RESURS-P 2              
1 40360U 14087A   24278.15636310  .00097790  00000+0  79413-3 0  9999
2 40360  97.1444   6.0956 0004570 232.3914 127.6935 15.70407809548090
MMS 1                   
1 40482U 15011A   24278.00001157 -.00001284  00000+0  00000+0 0  9997
2 40482  54.2375   4.3960 9004056 152.1310 103.0270  0.28511527 15689
MMS 2                   
1 40483U 15011B   24278.00001157 -.00001284  00000+0  00000+0 0  9998
2 40483  54.2375   4.3959 9003858 152.1318 101.8421  0.28510014 15667
MMS 3                   
1 40484U 15011C   24278.00001157 -.00001284  00000+0  00000+0 0  9999
2 40484  54.2388   4.3953 9003852 152.1318 101.9735  0.28510192 15666
MMS 4                   
1 40485U 15011D   24278.08335648 -.00001281  00000+0  00000+0 0  9990
2 40485  54.2401   4.3928 9002396 152.1352 100.6768  0.28508522 15661
ASTROSAT                
1 40930U 15052A   24272.01024207  .00003947  00000+0  42854-3 0  9990
2 40930   5.9982 342.6815 0007718  95.2584 264.8425 14.79608696486663
DAMPE                   
1 41173U 15078A   24278.20399003  .00005380  00000+0  19994-3 0  9996
2 41173  97.4379 271.3815 0014486 113.6740 246.6021 15.27867775489624
PISAT                   
1 41784U 16059B   24277.79850683  .00006405  00000+0  11538-2 0  9997
2 41784  97.8303 294.8696 0031052  31.0200 329.2831 14.66562868428573
HXMT (HUIYAN)           
1 42758U 17034A   24278.16675299  .00025790  00000+0  12754-2 0  9992
2 42758  43.0147  30.6321 0010615 117.2921 242.9009 15.17313215403392
